NORAD_CAT_ID,OBJECT_NAME,OBJECT_TYPE,EPOCH,MEAN_MOTION,ECCENTRICITY,INCLINATION,RA_OF_ASC_NODE,ARG_OF_PERICENTER,MEAN_ANOMALY,BSTAR,MEAN_MOTION_DOT,MEAN_MOTION_DDOT,TLE_LINE0,TLE_LINE1,TLE_LINE2,SEMIMAJOR_AXIS,PERIOD,APOGEE,PERIGEE,DECAYED
53828.0,STARLINK-4760,PAYLOAD,2024-04-18 09:47:34,15.08835922,0.0001496,53.2156,162.8211,90.498,269.6184,0.00015095,2.115e-05,0.0,0 STARLINK-4760,1 53828U 22114L   24109.40803990  .00002115  00000-0  15095-3 0  9997,2 53828  53.2156 162.8211 0001496  90.4980 269.6184 15.08835922 88624,6917.893,95.438,540.793,538.723,0.0
53828.0,STARLINK-4760,PAYLOAD,2024-04-19 12:49:07,15.08850274,0.0001525,53.2156,157.7656,90.6062,269.5105,0.00046741,7.161e-05,0.0,0 STARLINK-4760,1 53828U 22114L   24110.53411781  .00007161  00000-0  46741-3 0  9994,2 53828  53.2156 157.7656 0001525  90.6062 269.5105 15.08850274 88254,6917.849,95.437,540.769,538.659,0.0
53828.0,STARLINK-4760,PAYLOAD,2024-04-20 03:07:35,15.08846917,0.0001617,53.2159,155.0882,91.493,268.6248,0.0003675,5.567e-05,0.0,0 STARLINK-4760,1 53828U 22114L   24111.13027729  .00005567  00000-0  36750-3 0  9993,2 53828  53.2159 155.0882 0001617  91.4930 268.6248 15.08846917 88341,6917.859,95.437,540.843,538.606,0.0
53828.0,STARLINK-4760,PAYLOAD,2024-04-20 09:29:08,15.08845092,0.0001608,53.2163,153.8971,101.8631,258.2541,8.3207e-05,1.037e-05,0.0,0 STARLINK-4760,1 53828U 22114L   24111.39523544  .00001037  00000-0  83207-4 0  9995,2 53828  53.2163 153.8971 0001608 101.8631 258.2541 15.08845092 88923,6917.865,95.437,540.842,538.617,0.0
53828.0,STARLINK-4760,PAYLOAD,2024-04-21 02:58:23,15.08837467,0.0001697,53.2166,150.6259,98.8501,261.2684,-2.985e-05,-7.63e-06,0.0,0 STARLINK-4760,1 53828U 22114L   24112.12387915 -.00000763  00000-0 -29850-4 0  9998,2 53828  53.2166 150.6259 0001697  98.8501 261.2684 15.08837467 88490,6917.888,95.438,540.927,538.579,0.0
53828.0,STARLINK-4760,PAYLOAD,2024-04-21 09:19:56,15.08835356,0.0001289,53.2165,149.4302,121.4775,238.6343,-0.00014201,-2.547e-05,0.0,0 STARLINK-4760,1 53828U 22114L   24112.38884586 -.00002547  00000-0 -14201-3 0  9997,2 53828  53.2165 149.4302 0001289 121.4775 238.6343 15.08835356 89077,6917.895,95.438,540.651,538.868,0.0
53828.0,STARLINK-4760,PAYLOAD,2024-04-22 07:35:20,15.08837878,0.0001378,53.2157,145.2759,83.9549,276.16,0.00012738,1.74e-05,0.0,0 STARLINK-4760,1 53828U 22114L   24113.31620502  .00001740  00000-0  12738-3 0  9992,2 53828  53.2157 145.2759 0001378  83.9549 276.1600 15.08837878 88677,6917.887,95.438,540.705,538.799,0.0
53828.0,STARLINK-4760,PAYLOAD,2024-04-23 07:26:07,15.08844399,0.0001346,53.2154,140.8139,81.7588,278.3557,0.00028071,4.183e-05,0.0,0 STARLINK-4760,1 53828U 22114L   24114.30980363  .00004183  00000-0  28071-3 0  9997,2 53828  53.2154 140.8139 0001346  81.7588 278.3557 15.08844399 89369,6917.867,95.437,540.663,538.801,0.0
53828.0,STARLINK-4760,PAYLOAD,2024-04-24 10:27:40,15.08838742,0.0001479,53.2159,135.7597,91.5761,268.54,-9.1855e-06,-4.34e-06,0.0,0 STARLINK-4760,1 53828U 22114L   24115.43588617 -.00000434  00000-0 -91855-5 0  9997,2 53828  53.2159 135.7597 0001479  91.5761 268.5400 15.08838742 88995,6917.884,95.438,540.772,538.726,0.0
53828.0,STARLINK-4760,PAYLOAD,2024-04-25 07:07:41,15.08844442,0.0001473,53.2156,131.8957,93.336,266.78,0.0001642,2.327e-05,0.0,0 STARLINK-4760,1 53828U 22114L   24116.29700305  .00002327  00000-0  16420-3 0  9996,2 53828  53.2156 131.8957 0001473  93.3360 266.7800 15.08844442 89661,6917.867,95.437,540.751,538.713,0.0
53828.0,STARLINK-4760,PAYLOAD,2024-04-26 06:58:27,15.08846194,0.000137,53.2149,127.4347,97.6491,262.4656,0.00014725,2.057e-05,0.0,0 STARLINK-4760,1 53828U 22114L   24117.29060019  .00002057  00000-0  14725-3 0  9994,2 53828  53.2149 127.4347 0001370  97.6491 262.4656 15.08846194 89810,6917.861,95.437,540.674,538.779,0.0
53828.0,STARLINK-4760,PAYLOAD,2024-04-27 03:38:28,15.08847434,0.0001791,53.2171,123.5686,106.7951,253.3237,7.9279e-05,9.74e-06,0.0,0 STARLINK-4760,1 53828U 22114L   24118.15171689  .00000974  00000-0  79279-4 0  9998,2 53828  53.2171 123.5686 0001791 106.7951 253.3237 15.08847434 89405,6917.858,95.437,540.962,538.484,0.0
53828.0,STARLINK-4760,PAYLOAD,2024-04-27 06:49:14,15.08844816,0.0001648,53.2175,122.9741,103.0829,257.0347,3.7134e-05,3.03e-06,0.0,0 STARLINK-4760,1 53828U 22114L   24118.28419908  .00000303  00000-0  37134-4 0  9991,2 53828  53.2175 122.9741 0001648 103.0829 257.0347 15.08844816 89964,6917.866,95.437,540.871,538.591,0.0
53828.0,STARLINK-4760,PAYLOAD,2024-04-28 03:29:15,15.08840223,0.0001633,53.218,119.1073,105.1008,255.0165,-3.0727e-05,-7.77e-06,0.0,0 STARLINK-4760,1 53828U 22114L   24119.14532063 -.00000777  00000-0 -30727-4 0  9993,2 53828  53.2180 119.1073 0001633 105.1008 255.0165 15.08840223 89551,6917.88,95.438,540.874,538.615,0.0
53828.0,STARLINK-4760,PAYLOAD,2024-04-28 06:40:02,15.08835744,0.000131,53.2159,118.5143,89.3789,270.7353,-5.491e-05,-1.162e-05,0.0,0 STARLINK-4760,1 53828U 22114L   24119.27780356 -.00001162  00000-0 -54910-4 0  9996,2 53828  53.2159 118.5143 0001310  89.3789 270.7353 15.08835744 90118,6917.893,95.438,540.665,538.852,0.0
53828.0,STARLINK-4760,PAYLOAD,2024-04-29 04:55:24,15.08895573,0.0001699,53.2168,114.3529,73.3208,286.7971,-0.00081546,-0.00013263,0.0,0 STARLINK-4760,1 53828U 22114L   24120.20514562 -.00013263  00000-0 -81546-3 0  9994,2 53828  53.2168 114.3529 0001699  73.3208 286.7971 15.08895573 89712,6917.711,95.434,540.751,538.4,0.0
53828.0,STARLINK-4760,PAYLOAD,2024-04-29 09:41:35,15.08837936,0.0001319,53.2159,113.4581,87.4914,272.6229,2.1984e-06,-2.53e-06,0.0,0 STARLINK-4760,1 53828U 22114L   24120.40388193 -.00000253  00000-0  21984-5 0  9991,2 53828  53.2159 113.4581 0001319  87.4914 272.6229 15.08837936 89741,6917.887,95.438,540.664,538.839,0.0
53828.0,STARLINK-4760,PAYLOAD,2024-04-29 16:03:07,15.08838778,0.0001303,53.2157,112.2684,86.652,273.4621,3.2792e-05,2.34e-06,0.0,0 STARLINK-4760,1 53828U 22114L   24120.66884056  .00000234  00000-0  32792-4 0  9994,2 53828  53.2157 112.2684 0001303  86.6520 273.4621 15.08838778 90323,6917.884,95.438,540.651,538.848,0.0
53828.0,STARLINK-4760,PAYLOAD,2024-04-30 04:46:13,15.08828825,0.0001483,53.218,109.8902,88.234,271.8822,3.7097e-05,3.02e-06,0.0,0 STARLINK-4760,1 53828U 22114L   24121.19876972  .00000302  00000-0  37097-4 0  9990,2 53828  53.2180 109.8902 0001483  88.2340 271.8822 15.08828825 89865,6917.915,95.438,540.805,538.754,0.0
53828.0,STARLINK-4760,PAYLOAD,2024-04-30 06:21:36,15.08830927,0.000149,53.2182,109.5932,88.719,271.3973,5.4458e-05,5.79e-06,0.0,0 STARLINK-4760,1 53828U 22114L   24121.26500823  .00000579  00000-0  54458-4 0  9993,2 53828  53.2182 109.5932 0001490  88.7190 271.3973 15.08830927 90414,6917.908,95.438,540.804,538.742,0.0
53828.0,STARLINK-4760,PAYLOAD,2024-05-01 04:37:00,15.08841221,0.0001475,53.2179,105.4307,93.989,266.1271,7.1479e-05,8.5e-06,0.0,0 STARLINK-4760,1 53828U 22114L   24122.19236390  .00000850  00000-0  71479-4 0  9995,2 53828  53.2179 105.4307 0001475  93.9890 266.1271 15.08841221 90017,6917.877,95.437,540.762,538.721,0.0
53828.0,STARLINK-4760,PAYLOAD,2024-05-01 06:12:23,15.08843153,0.0001457,53.2178,105.1336,95.1078,265.0081,8.3151e-05,1.036e-05,0.0,0 STARLINK-4760,1 53828U 22114L   24122.25860225  .00001036  00000-0  83151-4 0  9999,2 53828  53.2178 105.1336 0001457  95.1078 265.0081 15.08843153 90560,6917.871,95.437,540.744,538.728,0.0
53828.0,STARLINK-4760,PAYLOAD,2024-05-01 15:44:41,15.08844695,0.0001458,53.2178,103.3495,95.1752,264.9406,7.4427e-05,8.97e-06,0.0,0 STARLINK-4760,1 53828U 22114L   24122.65604045  .00000897  00000-0  74427-4 0  9999,2 53828  53.2178 103.3495 0001458  95.1752 264.9406 15.08844695 90624,6917.866,95.437,540.74,538.722,0.0
53828.0,STARLINK-4760,PAYLOAD,2024-05-02 04:27:47,15.08833993,0.000169,53.2192,100.9722,102.4723,257.6458,1.3089e-05,-8e-07,0.0,0 STARLINK-4760,1 53828U 22114L   24123.18597046 -.00000080  00000-0  13089-4 0  9992,2 53828  53.2192 100.9722 0001690 102.4723 257.6458 15.08833993 90168,6917.899,95.438,540.933,538.595,0.0
53828.0,STARLINK-4760,PAYLOAD,2024-05-02 07:38:34,15.08833901,0.0001513,53.2177,100.3755,97.9364,262.18,2.3267e-05,8.2e-07,0.0,0 STARLINK-4760,1 53828U 22114L   24123.31845023  .00000082  00000-0  23267-4 0  9998,2 53828  53.2177 100.3755 0001513  97.9364 262.1800 15.08833901 90727,6917.899,95.438,540.811,538.717,0.0
53828.0,STARLINK-4760,PAYLOAD,2024-05-02 15:35:29,15.08842511,0.0001324,53.2165,98.8873,91.1501,268.9643,5.9366e-05,6.57e-06,0.0,0 STARLINK-4760,1 53828U 22114L   24123.64964289  .00000657  00000-0  59366-4 0  9997,2 53828  53.2165  98.8873 0001324  91.1501 268.9643 15.08842511 90237,6917.873,95.437,540.654,538.822,0.0
53828.0,STARLINK-4760,PAYLOAD,2024-05-03 05:53:57,15.0884324,0.0001349,53.2164,96.2115,95.4388,264.6758,2.6086e-06,-2.46e-06,0.0,0 STARLINK-4760,1 53828U 22114L   24124.24580387 -.00000246  00000-0  26086-5 0  9996,2 53828  53.2164  96.2115 0001349  95.4388 264.6758 15.08843240 90863,6917.87,95.437,540.669,538.802,0.0
53828.0,STARLINK-4760,PAYLOAD,2024-05-03 15:26:15,15.0885086,0.0001274,53.2164,94.4255,92.3118,267.802,1.268e-05,-8.6e-07,0.0,0 STARLINK-4760,1 53828U 22114L   24124.64323659 -.00000086  00000-0  12680-4 0  9993,2 53828  53.2164  94.4255 0001274  92.3118 267.8020 15.08850860 90922,6917.847,95.437,540.594,538.831,0.0
53828.0,STARLINK-4760,PAYLOAD,2024-05-04 04:09:22,15.08825695,0.0001394,53.2176,92.0473,91.3983,268.7169,-9.3637e-05,-1.777e-05,0.0,0 STARLINK-4760,1 53828U 22114L   24125.17317913 -.00001777  00000-0 -93637-4 0  9998,2 53828  53.2176  92.0473 0001394  91.3983 268.7169 15.08825695 90464,6917.924,95.438,540.753,538.825,0.0
53828.0,STARLINK-4760,PAYLOAD,2024-05-04 15:17:04,15.08832337,0.0001411,53.2178,89.967,89.0346,271.0807,-4.5231e-05,-1.008e-05,0.0,0 STARLINK-4760,1 53828U 22114L   24125.63685664 -.00001008  00000-0 -45231-4 0  9994,2 53828  53.2178  89.9670 0001411  89.0346 271.0807 15.08832337 90532,6917.904,95.438,540.745,538.793,0.0
